ONEWEB-0176             
1 48210U 21031A   25189.50719589 -.00000149  00000+0 -43559-3 0  9995
2 48210  87.9040 358.0795 0001861  93.8379 266.2964 13.14503767203161
ONEWEB-0184             
1 48211U 21031B   25189.86081349 -.00000034  00000+0 -12534-3 0  9993
2 48211  87.9039 357.9791 0002719  87.4035 272.7406 13.14503781203186
ONEWEB-0179             
1 48212U 21031C   25189.83147896 -.00003299  00000+0 -89326-2 0  9999
2 48212  87.9042 358.0026 0001551  87.5149 272.6158 13.14522071203225
ONEWEB-0180             
1 48213U 21031D   25189.48340182 -.00000076  00000+0 -23834-3 0  9997
2 48213  87.9040 358.0592 0001968  86.4665 273.6690 13.14502524203060
ONEWEB-0218             
1 48214U 21031E   25189.73396621 -.00000143  00000+0 -41919-3 0  9994
2 48214  87.9037 358.0100 0002705  80.8902 279.2533 13.14502255203254
ONEWEB-0209             
1 48215U 21031F   25189.49450708 -.00000185  00000+0 -53294-3 0  9990
2 48215  87.9040 358.1013 0001751  87.9305 272.2026 13.14503499203226
ONEWEB-0198             
1 48216U 21031G   25189.55477084 -.00000018  00000+0 -82248-4 0  9991
2 48216  87.9042 358.0910 0002062  84.3240 275.8125 13.14502159203343
ONEWEB-0189             
1 48217U 21031H   25189.87191748 -.00000200  00000+0 -57313-3 0  9994
2 48217  87.9041 358.0017 0002030  82.0835 278.0525 13.14503398203122
